STARLINK-30544          
1 58055U 23158E   26068.29715545 -.00012434  00000+0 -44228-3 0  9990
2 58055  43.0065  28.9469 0002176 251.3616 108.6999 15.27633848133513
BLUEBON                 
1 62688U 25009CH  26068.70316231  .00010452  00000+0  37313-3 0  9992
2 62688  97.4017 152.2033 0001193  43.3900 316.7434 15.29047253 63767
